{
    "links": {
        "self": "http://www.neowsapp.com/rest/v1/neo/3774687?api_key=iIulBulltgU6a56xZRHN4H3l9WmuAYTsLGpBGhQ2"
    },
    "id": "3774687",
    "neo_reference_id": "3774687",
    "name": "(2017 KF3)",
    "designation": "2017 KF3",
    "nasa_jpl_url": "http://ssd.jpl.nasa.gov/sbdb.cgi?sstr=3774687",
    "absolute_magnitude_h": 24.6,
    "estimated_diameter": {
        "kilometers": {
            "estimated_diameter_min": 0.0319561887,
            "estimated_diameter_max": 0.0714562102
        },
        "meters": {
            "estimated_diameter_min": 31.9561886721,
            "estimated_diameter_max": 71.4562101727
        },
        "miles": {
            "estimated_diameter_min": 0.0198566489,
            "estimated_diameter_max": 0.0444008168
        },
        "feet": {
            "estimated_diameter_min": 104.8431420431,
            "estimated_diameter_max": 234.436392583
        }
    },
    "is_potentially_hazardous_asteroid": false,
    "close_approach_data": [
        {
            "close_approach_date": "2017-06-11",
            "close_approach_date_full": "2017-Jun-11 22:44",
            "epoch_date_close_approach": 1497221040000,
            "relative_velocity": {
                "kilometers_per_second": "11.1778032566",
                "kilometers_per_hour": "40240.0917239389",
                "miles_per_hour": "25003.6281047997"
            },
            "miss_distance": {
                "astronomical": "0.0330952157",
                "lunar": "12.8740389073",
                "kilometers": "4950973.775910559",
                "miles": "3076392.4501373542"
            },
            "orbiting_body": "Earth"
        },
        {
            "close_approach_date": "2120-05-30",
            "close_approach_date_full": "2120-May-30 10:27",
            "epoch_date_close_approach": 4746508020000,
            "relative_velocity": {
                "kilometers_per_second": "15.0712602401",
                "kilometers_per_hour": "54256.5368644327",
                "miles_per_hour": "33712.9020311249"
            },
            "miss_distance": {
                "astronomical": "0.1472647043",
                "lunar": "57.2859699727",
                "kilometers": "22030486.089459841",
                "miles": "13689109.2835581658"
            },
            "orbiting_body": "Earth"
        }
    ],
    "orbital_data": {
        "orbit_id": "13",
        "orbit_determination_date": "2017-06-06 06:20:09",
        "first_observation_date": "2017-05-17",
        "last_observation_date": "2017-06-05",
        "data_arc_in_days": 19,
        "observations_used": 64,
        "orbit_uncertainty": "8",
        "minimum_orbit_intersection": ".0268245",
        "jupiter_tisserand_invariant": "3.403",
        "epoch_osculation": "2457894.5",
        "eccentricity": ".5657999155269567",
        "semi_major_axis": "2.232558625610192",
        "inclination": "7.1135148083707",
        "ascending_node_longitude": "73.22287409877924",
        "orbital_period": "1218.436035569296",
        "perihelion_distance": ".9693771438309666",
        "perihelion_argument": "223.5330001595519",
        "aphelion_distance": "3.495740107389417",
        "perihelion_time": "2457944.629818791988",
        "mean_anomaly": "345.1886071666589",
        "mean_motion": ".2954607295669775",
        "equinox": "J2000",
        "orbit_class": {
            "orbit_class_type": "APO",
            "orbit_class_description": "Near-Earth asteroid orbits which cross the Earth’s orbit similar to that of 1862 Apollo",
            "orbit_class_range": "a (semi-major axis) > 1.0 AU; q (perihelion) < 1.017 AU"
        }
    },
    "is_sentry_object": false
}